{
  "type": "FeatureCollection",
  "features": [
    {
      "type": "Feature",
      "properties": {
        "norad_id": 32183,
        "name": "FENGYUN 1C DEB",
        "group": "fengyun-1c-debris",
        "lat": -74.44807088143622,
        "lon": -168.51354691068627,
        "alt_km": 891.0797486341153,
        "timestamp": "2025-12-19T22:41:52.679067+00:00",
        "meta_object_name": "FENGYUN 1C DEB",
        "meta_object_id": "1999-025CUD",
        "meta_epoch": "2025-12-18T09:43:14.709504",
        "meta_mean_motion": 14.10098698,
        "meta_eccentricity": 0.00425368,
        "meta_inclination": 98.7124,
        "meta_ra_of_asc_node": 43.429,
        "meta_arg_of_pericenter": 45.0938,
        "meta_mean_anomaly": 315.3673,
        "meta_ephemeris_type": 0,
        "meta_classification_type": "U",
        "meta_norad_cat_id": 32183,
        "meta_element_set_no": 999,
        "meta_rev_at_epoch": 72844,
        "meta_bstar": 0.00054811543,
        "meta_mean_motion_dot": 9.34e-06,
        "meta_mean_motion_ddot": 0,
        "tle_line1": "1 32183U 99025CUD 25352.40503136  .00000934  00000+0  54812-3 0  9999",
        "tle_line2": "2 32183  98.7124  43.4290 0042536  45.0938 315.3673 14.10098698728440"
      },
      "geometry": {
        "type": "Point",
        "coordinates": [
          -168.51354691068627,
          -74.44807088143622
        ]
      }
    },
    {
      "type": "Feature",
      "properties": {
        "norad_id": 32184,
        "name": "FENGYUN 1C DEB",
        "group": "fengyun-1c-debris",
        "lat": -28.690971829843274,
        "lon": 138.6017706522071,
        "alt_km": 390.56710290272713,
        "timestamp": "2025-12-19T22:41:52.679078+00:00",
        "meta_object_name": "FENGYUN 1C DEB",
        "meta_object_id": "1999-025CUE",
        "meta_epoch": "2025-12-16T03:05:33.449568",
        "meta_mean_motion": 15.44388801,
        "meta_eccentricity": 0.00703262,
        "meta_inclination": 98.1214,
        "meta_ra_of_asc_node": 129.8556,
        "meta_arg_of_pericenter": 335.9544,
        "meta_mean_anomaly": 23.8423,
        "meta_ephemeris_type": 0,
        "meta_classification_type": "U",
        "meta_norad_cat_id": 32184,
        "meta_element_set_no": 999,
        "meta_rev_at_epoch": 98456,
        "meta_bstar": 0.0013643398,
        "meta_mean_motion_dot": 0.00069545,
        "meta_mean_motion_ddot": 0,
        "tle_line1": "1 32184U 99025CUE 25350.12885937  .00069545  00000+0  13643-2 0  9998",
        "tle_line2": "2 32184  98.1214 129.8556 0070326 335.9544  23.8423 15.44388801984568"
      },
      "geometry": {
        "type": "Point",
        "coordinates": [
          138.6017706522071,
          -28.690971829843274
        ]
      }
    },
    {
      "type": "Feature",
      "properties": {
        "norad_id": 32185,
        "name": "FENGYUN 1C DEB",
        "group": "fengyun-1c-debris",
        "lat": -42.77030951771415,
        "lon": 12.95376058643801,
        "alt_km": 628.8302450498395,
        "timestamp": "2025-12-19T22:41:52.679088+00:00",
        "meta_object_name": "FENGYUN 1C DEB",
        "meta_object_id": "1999-025CUF",
        "meta_epoch": "2025-12-18T07:23:00.099456",
        "meta_mean_motion": 15.04040802,
        "meta_eccentricity": 0.01605506,
        "meta_inclination": 98.9043,
        "meta_ra_of_asc_node": 199.4075,
        "meta_arg_of_pericenter": 357.316,
        "meta_mean_anomaly": 2.7184,
        "meta_ephemeris_type": 0,
        "meta_classification_type": "U",
        "meta_norad_cat_id": 32185,
        "meta_element_set_no": 999,
        "meta_rev_at_epoch": 95099,
        "meta_bstar": 0.0027463715,
        "meta_mean_motion_dot": 0.00050791,
        "meta_mean_motion_ddot": 0,
        "tle_line1": "1 32185U 99025CUF 25352.30764004  .00050791  00000+0  27464-2 0  9991",
        "tle_line2": "2 32185  98.9043 199.4075 0160550 357.3160   2.7184 15.04040802950999"
      },
      "geometry": {
        "type": "Point",
        "coordinates": [
          12.95376058643801,
          -42.77030951771415
        ]
      }
    },
    {
      "type": "Feature",
      "properties": {
        "norad_id": 32186,
        "name": "FENGYUN 1C DEB",
        "group": "fengyun-1c-debris",
        "lat": 80.34149845249465,
        "lon": -51.035332358312196,
        "alt_km": 966.8300492472881,
        "timestamp": "2025-12-19T22:41:52.679098+00:00",
        "meta_object_name": "FENGYUN 1C DEB",
        "meta_object_id": "1999-025CUG",
        "meta_epoch": "2025-12-18T09:41:21.541056",
        "meta_mean_motion": 13.76522933,
        "meta_eccentricity": 0.02747588,
        "meta_inclination": 99.6084,
        "meta_ra_of_asc_node": 42.9504,
        "meta_arg_of_pericenter": 185.9688,
        "meta_mean_anomaly": 190.6326,
        "meta_ephemeris_type": 0,
        "meta_classification_type": "U",
        "meta_norad_cat_id": 32186,
        "meta_element_set_no": 999,
        "meta_rev_at_epoch": 62688,
        "meta_bstar": 0.00072956212,
        "meta_mean_motion_dot": 8.97e-06,
        "meta_mean_motion_ddot": 0,
        "tle_line1": "1 32186U 99025CUG 25352.40372154  .00000897  00000+0  72956-3 0  9993",
        "tle_line2": "2 32186  99.6084  42.9504 0274758 185.9688 190.6326 13.76522933626888"
      },
      "geometry": {
        "type": "Point",
        "coordinates": [
          -51.035332358312196,
          80.34149845249465
        ]
      }
    },
    {
      "type": "Feature",
      "properties": {
        "norad_id": 32187,
        "name": "FENGYUN 1C DEB",
        "group": "fengyun-1c-debris",
        "lat": -53.46419638504013,
        "lon": 85.65547280850375,
        "alt_km": 1296.1907861612863,
        "timestamp": "2025-12-19T22:41:52.679109+00:00",
        "meta_object_name": "FENGYUN 1C DEB",
        "meta_object_id": "1999-025CUH",
        "meta_epoch": "2025-12-16T04:26:51.970272",
        "meta_mean_motion": 13.50499044,
        "meta_eccentricity": 0.02940609,
        "meta_inclination": 99.507,
        "meta_ra_of_asc_node": 68.9876,
        "meta_arg_of_pericenter": 137.2902,
        "meta_mean_anomaly": 255.0581,
        "meta_ephemeris_type": 0,
        "meta_classification_type": "U",
        "meta_norad_cat_id": 32187,
        "meta_element_set_no": 999,
        "meta_rev_at_epoch": 66305,
        "meta_bstar": 0.00040888468,
        "meta_mean_motion_dot": 3.03e-06,
        "meta_mean_motion_ddot": 0,
        "tle_line1": "1 32187U 99025CUH 25350.18532373  .00000303  00000+0  40888-3 0  9999",
        "tle_line2": "2 32187  99.5070  68.9876 0294060 137.2902 255.0581 13.50499044663057"
      },
      "geometry": {
        "type": "Point",
        "coordinates": [
          85.65547280850375,
          -53.46419638504013
        ]
      }
    },
    {
      "type": "Feature",
      "properties": {
        "norad_id": 32191,
        "name": "FENGYUN 1C DEB",
        "group": "fengyun-1c-debris",
        "lat": -12.313515635951871,
        "lon": -131.92206312018686,
        "alt_km": 751.7052514892275,
        "timestamp": "2025-12-19T22:41:52.679119+00:00",
        "meta_object_name": "FENGYUN 1C DEB",
        "meta_object_id": "1999-025CUM",
        "meta_epoch": "2025-12-12T09:31:01.273728",
        "meta_mean_motion": 14.25192776,
        "meta_eccentricity": 0.0093788,
        "meta_inclination": 98.7073,
        "meta_ra_of_asc_node": 42.503,
        "meta_arg_of_pericenter": 187.4274,
        "meta_mean_anomaly": 172.5522,
        "meta_ephemeris_type": 0,
        "meta_classification_type": "U",
        "meta_norad_cat_id": 32191,
        "meta_element_set_no": 999,
        "meta_rev_at_epoch": 64496,
        "meta_bstar": 0.002278977,
        "meta_mean_motion_dot": 5.565e-05,
        "meta_mean_motion_ddot": 0,
        "tle_line1": "1 32191U 99025CUM 25346.39654252  .00005565  00000+0  22790-2 0  9999",
        "tle_line2": "2 32191  98.7073  42.5030 0093788 187.4274 172.5522 14.25192776644961"
      },
      "geometry": {
        "type": "Point",
        "coordinates": [
          -131.92206312018686,
          -12.313515635951871
        ]
      }
    },
    {
      "type": "Feature",
      "properties": {
        "norad_id": 32192,
        "name": "FENGYUN 1C DEB",
        "group": "fengyun-1c-debris",
        "lat": -55.58978695782561,
        "lon": -122.91505988956175,
        "alt_km": 1087.6002428395695,
        "timestamp": "2025-12-19T22:41:52.679129+00:00",
        "meta_object_name": "FENGYUN 1C DEB",
        "meta_object_id": "1999-025CUN",
        "meta_epoch": "2025-12-19T02:08:14.572320",
        "meta_mean_motion": 13.82516624,
        "meta_eccentricity": 0.01819864,
        "meta_inclination": 98.6523,
        "meta_ra_of_asc_node": 223.454,
        "meta_arg_of_pericenter": 145.2236,
        "meta_mean_anomaly": 216.0974,
        "meta_ephemeris_type": 0,
        "meta_classification_type": "U",
        "meta_norad_cat_id": 32192,
        "meta_element_set_no": 999,
        "meta_rev_at_epoch": 92800,
        "meta_bstar": 0.00023718985,
        "meta_mean_motion_dot": 2.54e-06,
        "meta_mean_motion_ddot": 0,
        "tle_line1": "1 32192U 99025CUN 25353.08905755  .00000254  00000+0  23719-3 0  9994",
        "tle_line2": "2 32192  98.6523 223.4540 0181986 145.2236 216.0974 13.82516624928004"
      },
      "geometry": {
        "type": "Point",
        "coordinates": [
          -122.91505988956175,
          -55.58978695782561
        ]
      }
    }
  ]
}